{
  "norad_id": 66506,
  "name": "STARLINK-34765",
  "history": [
    {
      "epoch": "2026-03-28T19:31:55.380288Z",
      "apogee_km": 484.5457474895129,
      "perigee_km": 481.39155999837385,
      "latitude_deg": -2.8427895493033097e-05,
      "longitude_deg": 123.48852980103823,
      "height_km": 482.69146488753637,
      "semi_major_axis_km": 6861.105653743944,
      "eccentricity": 0.00022986,
      "inclination_deg": 43.0037,
      "raan_deg": 242.6982,
      "arg_perigee_deg": 271.9985,
      "mean_anomaly_deg": 88.0603,
      "mean_motion_rev_day": 15.27606865
    },
    {
      "epoch": "2026-03-29T03:22:42.576384Z",
      "apogee_km": 483.9427477537165,
      "perigee_km": 482.0970965416591,
      "latitude_deg": 1.8449039434147105e-05,
      "longitude_deg": 3.622087406549732,
      "height_km": 482.6812160970666,
      "semi_major_axis_km": 6861.1569221476875,
      "eccentricity": 0.0001345,
      "inclination_deg": 43.0039,
      "raan_deg": 240.8506,
      "arg_perigee_deg": 277.2088,
      "mean_anomaly_deg": 82.8611,
      "mean_motion_rev_day": 15.27589743
    },
    {
      "epoch": "2026-03-30T02:55:03.191808Z",
      "apogee_km": 485.0976603307263,
      "perigee_km": 480.8821839497632,
      "latitude_deg": 2.4406430810595144e-05,
      "longitude_deg": 4.030681899094972,
      "height_km": 482.776784713377,
      "semi_major_axis_km": 6861.1269221402445,
      "eccentricity": 0.0003072,
      "inclination_deg": 43.0039,
      "raan_deg": 235.3118,
      "arg_perigee_deg": 269.7679,
      "mean_anomaly_deg": 90.2821,
      "mean_motion_rev_day": 15.27599762
    },
    {
      "epoch": "2026-03-30T02:55:03.192672Z",
      "apogee_km": 485.0977975532651,
      "perigee_km": 480.8820467272244,
      "latitude_deg": 2.59949497985646e-05,
      "longitude_deg": 4.030679983050413,
      "height_km": 482.7767852681425,
      "semi_major_axis_km": 6861.1269221402445,
      "eccentricity": 0.00030722,
      "inclination_deg": 43.0039,
      "raan_deg": 235.3118,
      "arg_perigee_deg": 269.7679,
      "mean_anomaly_deg": 90.2821,
      "mean_motion_rev_day": 15.27599762
    },
    {
      "epoch": "2026-03-30T10:45:51.448896Z",
      "apogee_km": 483.61302498502846,
      "perigee_km": 482.64174439873113,
      "latitude_deg": 3.290951312036497e-05,
      "longitude_deg": -115.83983393606223,
      "height_km": 482.8951665756987,
      "semi_major_axis_km": 6861.26438469188,
      "eccentricity": 7.078e-05,
      "inclination_deg": 43.002,
      "raan_deg": 233.4646,
      "arg_perigee_deg": 271.0072,
      "mean_anomaly_deg": 89.0699,
      "mean_motion_rev_day": 15.27553855
    },
    {
      "epoch": "2026-03-30T17:02:29.374080Z",
      "apogee_km": 484.0162519134856,
      "perigee_km": 482.21064524543726,
      "latitude_deg": 9.423501013134884e-06,
      "longitude_deg": 148.26672421846672,
      "height_km": 482.9005957101102,
      "semi_major_axis_km": 6861.250448579462,
      "eccentricity": 0.00013158,
      "inclination_deg": 43.0027,
      "raan_deg": 231.987,
      "arg_perigee_deg": 269.3517,
      "mean_anomaly_deg": 90.7184,
      "mean_motion_rev_day": 15.27558509
    },
    {
      "epoch": "2026-03-31T16:34:49.527264Z",
      "apogee_km": 483.8178632008967,
      "perigee_km": 482.061427579677,
      "latitude_deg": -9.402400696540202e-06,
      "longitude_deg": 148.67682428484989,
      "height_km": 482.67420492699046,
      "semi_major_axis_km": 6861.076645390287,
      "eccentricity": 0.000128,
      "inclination_deg": 43.0027,
      "raan_deg": 226.4478,
      "arg_perigee_deg": 272.7637,
      "mean_anomaly_deg": 87.3068,
      "mean_motion_rev_day": 15.27616553
    },
    {
      "epoch": "2026-04-01T09:50:32.627904Z",
      "apogee_km": 483.59612343048775,
      "perigee_km": 482.3103551196473,
      "latitude_deg": 4.100007600395054e-06,
      "longitude_deg": -115.02617039269342,
      "height_km": 482.74222627189357,
      "semi_major_axis_km": 6861.090239275067,
      "eccentricity": 9.37e-05,
      "inclination_deg": 42.9991,
      "raan_deg": 222.3833,
      "arg_perigee_deg": 91.3103,
      "mean_anomaly_deg": 268.7856,
      "mean_motion_rev_day": 15.27612013
    },
    {
      "epoch": "2026-04-02T15:39:30.023712Z",
      "apogee_km": 483.893875953474,
      "perigee_km": 482.0645651467494,
      "latitude_deg": 3.6822814180452794e-06,
      "longitude_deg": 149.49518386451953,
      "height_km": 482.78518417893685,
      "semi_major_axis_km": 6861.116220550111,
      "eccentricity": 0.00013331,
      "inclination_deg": 43.0013,
      "raan_deg": 215.3683,
      "arg_perigee_deg": 268.1718,
      "mean_anomaly_deg": 91.8981,
      "mean_motion_rev_day": 15.27603336
    },
    {
      "epoch": "2026-04-03T16:46:01.315776Z",
      "apogee_km": 484.6271340728599,
      "perigee_km": 481.66168824695524,
      "latitude_deg": -3.2071410047297446e-05,
      "longitude_deg": 125.92798497907668,
      "height_km": 483.38504790034307,
      "semi_major_axis_km": 6861.281411159907,
      "eccentricity": 0.0002161,
      "inclination_deg": 43.0021,
      "raan_deg": 209.4627,
      "arg_perigee_deg": 251.7942,
      "mean_anomaly_deg": 108.2674,
      "mean_motion_rev_day": 15.27548169
    },
    {
      "epoch": "2026-04-04T14:44:12.293088Z",
      "apogee_km": 483.35168496852384,
      "perigee_km": 482.4515167040927,
      "latitude_deg": 3.769255629282088e-05,
      "longitude_deg": 150.30805579834148,
      "height_km": 483.08085696102944,
      "semi_major_axis_km": 6861.0386008363075,
      "eccentricity": 6.56e-05,
      "inclination_deg": 42.9993,
      "raan_deg": 204.2907,
      "arg_perigee_deg": 206.2401,
      "mean_anomaly_deg": 153.8418,
      "mean_motion_rev_day": 15.27629259
    },
    {
      "epoch": "2026-04-05T14:16:34.761792Z",
      "apogee_km": 484.0422212950907,
      "perigee_km": 482.3364955623856,
      "latitude_deg": 4.91699358757618e-07,
      "longitude_deg": 150.7099591134714,
      "height_km": 483.10157583485915,
      "semi_major_axis_km": 6861.326358428738,
      "eccentricity": 0.0001243,
      "inclination_deg": 43.0009,
      "raan_deg": 198.753,
      "arg_perigee_deg": 260.8532,
      "mean_anomaly_deg": 99.2179,
      "mean_motion_rev_day": 15.27533159
    },
    {
      "epoch": "2026-04-05T14:16:34.762656Z",
      "apogee_km": 484.04194684203685,
      "perigee_km": 482.33677001543947,
      "latitude_deg": -2.6124857491427452e-06,
      "longitude_deg": 150.70995219328236,
      "height_km": 483.1015322124592,
      "semi_major_axis_km": 6861.326358428738,
      "eccentricity": 0.00012426,
      "inclination_deg": 43.0009,
      "raan_deg": 198.753,
      "arg_perigee_deg": 260.8532,
      "mean_anomaly_deg": 99.2179,
      "mean_motion_rev_day": 15.27533159
    },
    {
      "epoch": "2026-04-06T05:58:06.613824Z",
      "apogee_km": 484.8789070503153,
      "perigee_km": 480.70211160118834,
      "latitude_deg": -9.706485288965877e-07,
      "longitude_deg": -89.00841556748239,
      "height_km": 482.62189289183027,
      "semi_major_axis_km": 6860.927509325752,
      "eccentricity": 0.00030439,
      "inclination_deg": 43.0044,
      "raan_deg": 195.0618,
      "arg_perigee_deg": 268.5449,
      "mean_anomaly_deg": 91.5054,
      "mean_motion_rev_day": 15.27666362
    },
    {
      "epoch": "2026-04-07T07:04:38.004384Z",
      "apogee_km": 483.80326069737384,
      "perigee_km": 482.2660837959247,
      "latitude_deg": -1.9431240897505876e-05,
      "longitude_deg": -112.57821045472691,
      "height_km": 482.8228268984281,
      "semi_major_axis_km": 6861.171672246649,
      "eccentricity": 0.00011202,
      "inclination_deg": 43.0022,
      "raan_deg": 189.154,
      "arg_perigee_deg": 269.1468,
      "mean_anomaly_deg": 90.9255,
      "mean_motion_rev_day": 15.27584817
    },
    {
      "epoch": "2026-04-08T12:53:36.017088Z",
      "apogee_km": 483.96318946239353,
      "perigee_km": 482.0896801748813,
      "latitude_deg": -1.411858332705091e-05,
      "longitude_deg": 151.94036756526015,
      "height_km": 482.774419913956,
      "semi_major_axis_km": 6861.163434818637,
      "eccentricity": 0.00013653,
      "inclination_deg": 42.9995,
      "raan_deg": 182.1388,
      "arg_perigee_deg": 271.7518,
      "mean_anomaly_deg": 88.3177,
      "mean_motion_rev_day": 15.27587568
    }
  ]
}